STARLINK-5510           
1 55647U 23021V   26068.74813769  .00000113  00000+0  17236-4 0  9999
2 55647  70.0015 184.1673 0003265 270.0124  90.0661 14.98333238168803
HAWK-8C                 
1 59449U 24066H   26068.47383543  .00002400  00000+0  21518-3 0  9993
2 59449  45.6068  72.8656 0003935 260.2975  99.7462 14.98770227104860
